[
    {
        "Altitude(m)": 607886.7209389429,
        "Argument of Periapsis(deg)": 0.0,
        "Eccentricity": 0.0,
        "Inclination(deg)": 60.0,
        "Latitude(deg)": 40.998523533188326,
        "Longitude(deg)": 159.97302776731476,
        "Mean Anomaly(deg)": 49.09089999999999,
        "RAAN(deg)": 229.99999999999997,
        "Satellite Name": "Test1 1015",
        "Satellite Number": 1015,
        "Semi-Major Axis(m)": 6980739.136638005,
        "Time(s)": 0
    },
    {
        "Altitude(m)": 607987.6348618728,
        "Argument of Periapsis(deg)": 0.00010418945913296404,
        "Eccentricity": 0.0,
        "Inclination(deg)": 60.0,
        "Latitude(deg)": 41.46361310681454,
        "Longitude(deg)": 160.47725705007576,
        "Mean Anomaly(deg)": 49.711006145461845,
        "RAAN(deg)": 229.99957995086024,
        "Satellite Name": "Test1 1015",
        "Satellite Number": 1015,
        "Semi-Major Axis(m)": 6980739.136638005,
        "Time(s)": 10
    },
    {
        "Altitude(m)": 608088.5983895264,
        "Argument of Periapsis(deg)": 0.0002083789182659281,
        "Eccentricity": 0.0,
        "Inclination(deg)": 60.0,
        "Latitude(deg)": 41.926038492994536,
        "Longitude(deg)": 160.98930937433462,
        "Mean Anomaly(deg)": 50.33111229092365,
        "RAAN(deg)": 229.99915990172047,
        "Satellite Name": "Test1 1015",
        "Satellite Number": 1015,
        "Semi-Major Axis(m)": 6980739.136638005,
        "Time(s)": 20
    },
    {
        "Altitude(m)": 608189.5483006891,
        "Argument of Periapsis(deg)": 0.00031256837739889213,
        "Eccentricity": 0.0,
        "Inclination(deg)": 60.0,
        "Latitude(deg)": 42.38571894171144,
        "Longitude(deg)": 161.5093807816055,
        "Mean Anomaly(deg)": 50.95121843638551,
        "RAAN(deg)": 229.99873985258077,
        "Satellite Name": "Test1 1015",
        "Satellite Number": 1015,
        "Semi-Major Axis(m)": 6980739.136638005,
        "Time(s)": 30
    },
    {
        "Altitude(m)": 608290.4216008818,
        "Argument of Periapsis(deg)": 0.0004167578365318562,
        "Eccentricity": 0.0,
        "Inclination(deg)": 60.0,
        "Latitude(deg)": 42.84257115589435,
        "Longitude(deg)": 162.03767118010654,
        "Mean Anomaly(deg)": 51.5713245818473,
        "RAAN(deg)": 229.998319803441,
        "Satellite Name": "Test1 1015",
        "Satellite Number": 1015,
        "Semi-Major Axis(m)": 6980739.136638005,
        "Time(s)": 40
    },
    {
        "Altitude(m)": 608391.1555536049,
        "Argument of Periapsis(deg)": 0.0005209472956648203,
        "Eccentricity": 0.0,
        "Inclination(deg)": 60.0,
        "Latitude(deg)": 43.296509212033605,
        "Longitude(deg)": 162.5743832497374,
        "Mean Anomaly(deg)": 52.191430727309154,
        "RAAN(deg)": 229.99789975430127,
        "Satellite Name": "Test1 1015",
        "Satellite Number": 1015,
        "Semi-Major Axis(m)": 6980739.136638005,
        "Time(s)": 50
    },
    {
        "Altitude(m)": 608491.6877114293,
        "Argument of Periapsis(deg)": 0.0006251367547977843,
        "Eccentricity": 0.0,
        "Inclination(deg)": 60.0,
        "Latitude(deg)": 43.74744448008378,
        "Longitude(deg)": 163.11972284016215,
        "Mean Anomaly(deg)": 52.811536872770965,
        "RAAN(deg)": 229.9974797051615,
        "Satellite Name": "Test1 1015",
        "Satellite Number": 1015,
        "Semi-Major Axis(m)": 6980739.136638005,
        "Time(s)": 60
    },
    {
        "Altitude(m)": 608591.9559468694,
        "Argument of Periapsis(deg)": 0.0007293262139307483,
        "Eccentricity": 0.0,
        "Inclination(deg)": 60.0,
        "Latitude(deg)": 44.19528554289041,
        "Longitude(deg)": 163.67389934723866,
        "Mean Anomaly(deg)": 53.43164301823282,
        "RAAN(deg)": 229.9970596560218,
        "Satellite Name": "Test1 1015",
        "Satellite Number": 1015,
        "Semi-Major Axis(m)": 6980739.136638005,
        "Time(s)": 70
    },
    {
        "Altitude(m)": 608691.8984830709,
        "Argument of Periapsis(deg)": 0.0008335156730637124,
        "Eccentricity": 0.0,
        "Inclination(deg)": 60.0,
        "Latitude(deg)": 44.63993811540578,
        "Longitude(deg)": 164.23712455290413,
        "Mean Anomaly(deg)": 54.05174916369461,
        "RAAN(deg)": 229.99663960688204,
        "Satellite Name": "Test1 1015",
        "Satellite Number": 1015,
        "Semi-Major Axis(m)": 6980739.136638005,
        "Time(s)": 80
    },
    {
        "Altitude(m)": 608791.4539243014,
        "Argument of Periapsis(deg)": 0.0009377051321966765,
        "Eccentricity": 0.0,
        "Inclination(deg)": 60.0,
        "Latitude(deg)": 45.081304963992416,
        "Longitude(deg)": 164.8096129521346,
        "Mean Anomaly(deg)": 54.67185530915647,
        "RAAN(deg)": 229.9962195577423,
        "Satellite Name": "Test1 1015",
        "Satellite Number": 1015,
        "Semi-Major Axis(m)": 6980739.136638005,
        "Time(s)": 90
    },
    {
        "Altitude(m)": 608890.5612861582,
        "Argument of Periapsis(deg)": 0.0010418945913296407,
        "Eccentricity": 0.0,
        "Inclination(deg)": 60.0,
        "Latitude(deg)": 45.519285826157265,
        "Longitude(deg)": 165.39158205184233,
        "Mean Anomaly(deg)": 55.291961454618324,
        "RAAN(deg)": 229.99579950860254,
        "Satellite Name": "Test1 1015",
        "Satellite Number": 1015,
        "Semi-Major Axis(m)": 6980739.136638005,
        "Time(s)": 100
    },
    {
        "Altitude(m)": 608989.160025575,
        "Argument of Periapsis(deg)": 0.0011460840504626045,
        "Eccentricity": 0.0,
        "Inclination(deg)": 60.0,
        "Latitude(deg)": 45.95377733110578,
        "Longitude(deg)": 165.98325112645819,
        "Mean Anomaly(deg)": 55.91206760008013,
        "RAAN(deg)": 229.99537945946284,
        "Satellite Name": "Test1 1015",
        "Satellite Number": 1015,
        "Semi-Major Axis(m)": 6980739.136638005,
        "Time(s)": 110
    },
    {
        "Altitude(m)": 609087.1900705594,
        "Argument of Periapsis(deg)": 0.0012502735095955685,
        "Eccentricity": 0.0,
        "Inclination(deg)": 60.0,
        "Latitude(deg)": 46.384672921543384,
        "Longitude(deg)": 166.58484145344846,
        "Mean Anomaly(deg)": 56.53217374554198,
        "RAAN(deg)": 229.99495941032308,
        "Satellite Name": "Test1 1015",
        "Satellite Number": 1015,
        "Semi-Major Axis(m)": 6980739.136638005,
        "Time(s)": 120
    },
    {
        "Altitude(m)": 609184.5918496441,
        "Argument of Periapsis(deg)": 0.0013544629687285324,
        "Eccentricity": 0.0,
        "Inclination(deg)": 60.0,
        "Latitude(deg)": 46.81186277720897,
        "Longitude(deg)": 167.19657651328015,
        "Mean Anomaly(deg)": 57.15227989100378,
        "RAAN(deg)": 229.99453936118334,
        "Satellite Name": "Test1 1015",
        "Satellite Number": 1015,
        "Semi-Major Axis(m)": 6980739.136638005,
        "Time(s)": 130
    },
    {
        "Altitude(m)": 609281.3063210695,
        "Argument of Periapsis(deg)": 0.0014586524278614966,
        "Eccentricity": 0.0,
        "Inclination(deg)": 60.0,
        "Latitude(deg)": 47.235233740683306,
        "Longitude(deg)": 167.81868063824533,
        "Mean Anomaly(deg)": 57.77238603646563,
        "RAAN(deg)": 229.99411931204358,
        "Satellite Name": "Test1 1015",
        "Satellite Number": 1015,
        "Semi-Major Axis(m)": 6980739.136638005,
        "Time(s)": 140
    },
    {
        "Altitude(m)": 609377.2750016581,
        "Argument of Periapsis(deg)": 0.0015628418869944607,
        "Eccentricity": 0.0,
        "Inclination(deg)": 60.0,
        "Latitude(deg)": 47.65466924606019,
        "Longitude(deg)": 168.45137913308434,
        "Mean Anomaly(deg)": 58.39249218192744,
        "RAAN(deg)": 229.99369926290387,
        "Satellite Name": "Test1 1015",
        "Satellite Number": 1015,
        "Semi-Major Axis(m)": 6980739.136638005,
        "Time(s)": 150
    },
    {
        "Altitude(m)": 609472.4399953929,
        "Argument of Periapsis(deg)": 0.0016670313461274247,
        "Eccentricity": 0.0,
        "Inclination(deg)": 60.0,
        "Latitude(deg)": 48.07004925114363,
        "Longitude(deg)": 169.09489835164757,
        "Mean Anomaly(deg)": 59.01259832738929,
        "RAAN(deg)": 229.99327921376414,
        "Satellite Name": "Test1 1015",
        "Satellite Number": 1015,
        "Semi-Major Axis(m)": 6980739.136638005,
        "Time(s)": 160
    },
    {
        "Altitude(m)": 609566.7440216432,
        "Argument of Periapsis(deg)": 0.0017712208052603888,
        "Eccentricity": 0.0,
        "Inclination(deg)": 60.0,
        "Latitude(deg)": 48.48125017389431,
        "Longitude(deg)": 169.74946421377587,
        "Mean Anomaly(deg)": 59.63270447285109,
        "RAAN(deg)": 229.99285916462438,
        "Satellite Name": "Test1 1015",
        "Satellite Number": 1015,
        "Semi-Major Axis(m)": 6980739.136638005,
        "Time(s)": 170
    },
    {
        "Altitude(m)": 609660.1304430912,
        "Argument of Periapsis(deg)": 0.001875410264393353,
        "Eccentricity": 0.0,
        "Inclination(deg)": 60.0,
        "Latitude(deg)": 48.88814483391381,
        "Longitude(deg)": 170.4153021851684,
        "Mean Anomaly(deg)": 60.25281061831294,
        "RAAN(deg)": 229.99243911548461,
        "Satellite Name": "Test1 1015",
        "Satellite Number": 1015,
        "Semi-Major Axis(m)": 6980739.136638005,
        "Time(s)": 180
    },
    {
        "Altitude(m)": 609752.543293277,
        "Argument of Periapsis(deg)": 0.0019795997235263173,
        "Eccentricity": 0.0,
        "Inclination(deg)": 60.0,
        "Latitude(deg)": 49.29060239983177,
        "Longitude(deg)": 171.0926372043761,
        "Mean Anomaly(deg)": 60.87291676377475,
        "RAAN(deg)": 229.9920190663449,
        "Satellite Name": "Test1 1015",
        "Satellite Number": 1015,
        "Semi-Major Axis(m)": 6980739.136638005,
        "Time(s)": 190
    }
]